{"fetched_at":"2026-07-19T17:31:49.420Z","source":"https://celestrak.org/NORAD/elements/gp.php?NAME=PLEIADES&FORMAT=JSON","constellation":"pleiades","records":[{"OBJECT_NAME":"PLEIADES 1A","OBJECT_ID":"2011-076F","EPOCH":"2026-07-19T07:14:41.124768","CLASSIFICATION_TYPE":"U","MEAN_MOTION":14.58547767,"ECCENTRICITY":0.00016106,"INCLINATION":98.1964,"RA_OF_ASC_NODE":274.9715,"ARG_OF_PERICENTER":78.5814,"MEAN_ANOMALY":352.6793,"EPHEMERIS_TYPE":0,"NORAD_CAT_ID":38012,"ELEMENT_SET_NO":999,"REV_AT_EPOCH":77667,"BSTAR":0.000007523874,"MEAN_MOTION_DOT":-1.1e-7,"MEAN_MOTION_DDOT":0},{"OBJECT_NAME":"PLEIADES 1B","OBJECT_ID":"2012-068A","EPOCH":"2026-07-19T06:05:20.666688","CLASSIFICATION_TYPE":"U","MEAN_MOTION":14.58535541,"ECCENTRICITY":0.00014875,"INCLINATION":98.1934,"RA_OF_ASC_NODE":274.8618,"ARG_OF_PERICENTER":79.5068,"MEAN_ANOMALY":280.6299,"EPHEMERIS_TYPE":0,"NORAD_CAT_ID":39019,"ELEMENT_SET_NO":999,"REV_AT_EPOCH":72552,"BSTAR":0.000017706784,"MEAN_MOTION_DOT":3.7e-7,"MEAN_MOTION_DDOT":0}]}
