PLEIADES 1A             
1 38012U 11076F   26200.30186487 -.00000011  00000+0  75239-5 0  9999
2 38012  98.1964 274.9715 0001610  78.5814 352.6793 14.58547767776671
PLEIADES 1B             
1 39019U 12068A   26200.25371142  .00000037  00000+0  17707-4 0  9999
2 39019  98.1934 274.8618 0001487  79.5068 280.6299 14.58535541725527
